0 DELTA 1 DEB
1 07849U 72058V   13281.67834534  .00000340  00000-0  17884-3 0  4594
2 07849 098.0311 162.3849 0350075 198.9999 223.0692 13.92098051926389
0 DELTA 1 DEB
1 07849U 72058V   13284.14102556  .00000378  00000-0  19674-3 0  4603
2 07849 098.0309 164.5257 0350215 192.0662 324.9391 13.92102828926724
0 DELTA 1 DEB
1 07849U 72058V   13286.15470777  .00000676  00000-0  33711-3 0  4619
2 07849 098.0305 166.2761 0350429 186.4033 336.6607 13.92101429927003
0 DELTA 1 DEB
1 07849U 72058V   13288.16525600  .00001416  00000-0  68666-3 0  4629
2 07849 098.0302 168.0238 0350486 180.7487 332.6633 13.92102375927288
0 DELTA 1 DEB
1 07849U 72058V   13290.17786501  .00001169  00000-0  56940-3 0  4630
2 07849 098.0298 169.7732 0350629 175.0860 339.0084 13.92107452927563
0 DELTA 1 DEB
1 07849U 72058V   13292.18392205  .00000827  00000-0  40759-3 0  4649
2 07849 098.0301 171.5166 0350725 169.4628 312.5078 13.92113779927845
0 DELTA 1 DEB
1 07849U 72058V   13294.19604859  .00000554  00000-0  27825-3 0  4650
2 07849 098.0299 173.2653 0350869 163.8169 316.4749 13.92118968928123
